EUTELSAT 8 WEST B       
1 40875U 15039B   25328.36847382 -.00000045  00000+0  00000+0 0  9991
2 40875   0.0670   0.8805 0004199 246.8932 300.4725  1.00271441 37604
EUTELSAT 9B             
1 41310U 16005A   25328.37176718  .00000082  00000+0  00000+0 0  9999
2 41310   0.0455  63.5730 0004320 193.6578 309.2106  1.00272307 36065
EUTELSAT 65 WEST A      
1 41382U 16014A   25328.35712042 -.00000256  00000+0  00000+0 0  9996
2 41382   0.0589  23.4264 0002519 227.8809 235.6387  1.00269820 35488
EUTELSAT 117 WEST B     
1 41589U 16038B   25328.35947325  .00000009  00000+0  00000+0 0  9990
2 41589   0.0105 146.2006 0000401 139.6030 150.1778  1.00269330 34607
EUTELSAT 172B           
1 42741U 17029B   25328.26143983  .00000015  00000+0  00000+0 0  9997
2 42741   0.0317 163.1238 0000291 280.4229 246.0759  1.00271991 31674
EUTELSAT 7C             
1 44334U 19034B   25328.30009339  .00000068  00000+0  00000+0 0  9994
2 44334   0.0761 185.3375 0003172  29.6809 323.5728  1.00268552  4781
EUTELSAT 5 WEST B       
1 44624U 19067A   25328.36908050 -.00000022  00000+0  00000+0 0  9997
2 44624   0.0670 335.0509 0003147 266.5994 309.8236  1.00271391 22386
EUTELSAT KONNECT        
1 45027U 20005B   25328.37150718  .00000070  00000+0  00000+0 0  9992
2 45027   0.0658 102.6530 0001195 173.1696 288.7159  1.00271896 22272
